{
  "norad_id": 61854,
  "name": "STARLINK-32486",
  "history": [
    {
      "epoch": "2026-03-28T19:18:53.161344",
      "apogee_km": 483.8028445395221,
      "perigee_km": 482.28117225904043,
      "latitude_deg": -41.40460447590772,
      "longitude_deg": 82.65906815999188,
      "semi_major_axis_km": 6861.179008399281,
      "eccentricity": 0.00011089,
      "inclination_deg": 43.0023,
      "raan_deg": 129.8149,
      "arg_perigee_deg": 270.7887,
      "mean_anomaly_deg": 89.2838,
      "mean_motion_rev_day": 15.27582367
    }
  ]
}